[{"OBJECT_NAME":"STARLINK-3570","OBJECT_ID":"2022-022AG","EPOCH":"2026-03-09T04:32:45.429216","MEAN_MOTION":15.08832143,"ECCENTRICITY":0.00018759,"INCLINATION":53.2211,"RA_OF_ASC_NODE":1.3804,"ARG_OF_PERICENTER":91.5099,"MEAN_ANOMALY":268.6108,"EPHEMERIS_TYPE":0,"CLASSIFICATION_TYPE":"U","NORAD_CAT_ID":51882,"ELEMENT_SET_NO":999,"REV_AT_EPOCH":22322,"BSTAR":1.7344565e-5,"MEAN_MOTION_DOT":-1.2e-7,"MEAN_MOTION_DDOT":0},{"OBJECT_NAME":"OBJECT H","OBJECT_ID":"2025-292H","EPOCH":"2026-03-09T22:24:53.558208","MEAN_MOTION":15.06373042,"ECCENTRICITY":0.00142604,"INCLINATION":97.6442,"RA_OF_ASC_NODE":145.7846,"ARG_OF_PERICENTER":348.9217,"MEAN_ANOMALY":11.1694,"EPHEMERIS_TYPE":0,"CLASSIFICATION_TYPE":"U","NORAD_CAT_ID":67000,"ELEMENT_SET_NO":999,"REV_AT_EPOCH":1338,"BSTAR":0.0005462937,"MEAN_MOTION_DOT":8.001e-5,"MEAN_MOTION_DDOT":0}]
